SHIJIAN-17 (SJ-17)      
1 41838U 16065A   26187.75829411  .00000127  00000+0  00000+0 0  9991
2 41838   5.7992  72.3693 0002015  42.0570 289.9689  0.99862348 35394
GOES 16                 
1 41866U 16071A   26187.83918316 -.00000076  00000+0  00000+0 0  9995
2 41866   0.3862  85.6477 0000491  64.4442 332.1454  1.00271590 35309
TIANLIAN 1-04           
1 41869U 16072A   26187.82358309  .00000045  00000+0  00000+0 0  9993
2 41869   0.9182  82.7972 0043710  90.0173 225.2996  1.00269513 35493
WGS F8 (USA 272)        
1 41879U 16075A   26187.62760712  .00000000  00000+0  00000+0 0  9991
2 41879   0.0481  63.1878 0000226 233.0796   4.1294  1.00266110 35013
FENGYUN 4A              
1 41882U 16077A   26187.88445678 -.00000343  00000+0  00000+0 0  9997
2 41882   2.3693  80.0723 0008096 157.7935 129.1777  1.00273432 35125
ECHOSTAR 19             
1 41893U 16079A   26187.84056985 -.00000124  00000+0  00000+0 0  9993
2 41893   0.0193  39.1823 0001366  69.0150  22.1326  1.00271135 34905
JCSAT-110A (JCSAT-15)   
1 41903U 16082A   26187.83159464 -.00000336  00000+0  00000+0 0  9999
2 41903   0.0191  30.1152 0000592  95.6004 208.5334  1.00270953 34955
STAR ONE D1             
1 41904U 16082B   26187.84325653 -.00000196  00000+0  00000+0 0  9990
2 41904   0.0165 305.3058 0002206 162.3741  36.7109  1.00271929 34970
TJS-2                   
1 41911U 17001A   26187.87310339  .00000007  00000+0  00000+0 0  9998
2 41911   0.8810  85.0826 0000845  77.3455 143.3159  1.00273259 34914
SBIRS GEO-4 (USA 273)   
1 41937U 17004A   26187.84025677  .00000140  00000+0  00000+0 0  9992
2 41937   2.2784  43.7616 0002768  62.7849 142.0824  1.00285122 34790
HISPASAT 36W-1          
1 41942U 17006A   26187.63881214 -.00000230  00000+0  00000+0 0  9995
2 41942   0.0289 208.3811 0001256 247.2438  22.9660  1.00269336 34448
TELKOM 3S               
1 41944U 17007A   26187.81196970  .00000000  00000+0  00000+0 0  9990
2 41944   0.0181  33.5477 0002168  77.1680 224.3863  1.00267911 34337
INTELSAT 32E (IS-32E)   
1 41945U 17007B   26187.20972603 -.00000254  00000+0  00000+0 0  9991
2 41945   0.0177 341.1822 0000837  13.2972 322.0488  1.00273073 34415
ECHOSTAR 23             
1 42070U 17014A   26187.62425207 -.00000042  00000+0  00000+0 0  9993
2 42070   0.0181  28.7560 0001938  70.7835 299.8979  1.00268217 34113
WGS F9 (USA 275)        
1 42075U 17016A   26187.64366551  .00000000  00000+0  00000+0 0  9991
2 42075   0.0176  12.7437 0000348 170.5471 321.0549  1.00269105 34092
SES-10                  
1 42432U 17017A   26187.84663654 -.00000258  00000+0  00000+0 0  9991
2 42432   0.0146  35.1240 0002722  76.1314  51.4676  1.00269983 33955
CHINASAT 16 (SJ-13)     
1 42662U 17018A   26187.81049638 -.00000337  00000+0  00000+0 0  9992
2 42662   0.0913  89.1052 0004893 131.8089 106.1895  1.00273235 33946
KOREASAT 7              
1 42691U 17023A   26187.81153638 -.00000347  00000+0  00000+0 0  9997
2 42691   0.0179   5.3992 0000635 121.4593 205.9531  1.00271832 33564
SGDC                    
1 42692U 17023B   26187.41797789 -.00000235  00000+0  00000+0 0  9991
2 42692   0.0112  27.8689 0002489  83.5842 248.5748  1.00271739 33590
GSAT-9                  
1 42695U 17024A   26187.80789637 -.00000271  00000+0  00000+0 0  9991
2 42695   0.0670  92.1887 0002210  24.0146 196.7431  1.00270968 33491
INMARSAT 5-F4           
1 42698U 17025A   26186.99211551  .00000000  00000+0  00000+0 0  9998
2 42698   0.0225  38.2338 0000442 151.9506 147.4722  1.00272578 33469
SES-15                  
1 42709U 17026A   26187.69175729  .00000075  00000+0  00000+0 0  9998
2 42709   0.0241 328.0253 0000516 131.1108 305.4075  1.00267383  7620
QZS-2 (MICHIBIKI-2)     
1 42738U 17028A   26187.45343186 -.00000103  00000+0  00000+0 0  9993
2 42738  39.3984 242.8697 0758305 269.4935  77.5786  1.00278986  7813
VIASAT-2                
1 42740U 17029A   26187.84602986 -.00000250  00000+0  00000+0 0  9999
2 42740   0.0236 289.2379 0000132 232.7062 357.5784  1.00271696 33409
EUTELSAT 172B           
1 42741U 17029B   26187.75136073  .00000009  00000+0  00000+0 0  9990
2 42741   0.0309 128.9224 0000059 320.1341 278.1645  1.00272110 33933
GSAT-19                 
1 42747U 17031A   26187.86937670  .00000140  00000+0  00000+0 0  9999
2 42747   0.0163  82.7991 0006563   1.3430 201.5597  1.00271684 33344
ECHOSTAR 21             
1 42749U 17032A   26187.86190948  .00000080  00000+0  00000+0 0  9994
2 42749   1.7697 356.9296 0002256  99.9665 148.4848  1.00271331 33299
BULGARIASAT-1           
1 42801U 17038A   26187.86026280  .00000026  00000+0  00000+0 0  9996
2 42801   0.0243 286.9796 0003113 184.1507 125.2866  1.00272254 33040
HELLAS-SAT 3            
1 42814U 17040A   26187.86519932  .00000167  00000+0  00000+0 0  9990
2 42814   0.0589  55.1265 0003690  10.8786 209.3183  1.00273705 33002
GSAT-17                 
1 42815U 17040B   26187.66450758 -.00000243  00000+0  00000+0 0  9995
2 42815   0.0501  89.2105 0001689 178.2239 349.9132  1.00270403 32989
INTELSAT 35E (IS-35E)   
1 42818U 17041A   26187.78178088 -.00000223  00000+0  00000+0 0  9993
2 42818   0.0158   7.5506 0001742  96.5837  67.5808  1.00271849 33017
COSMOS 2520             
1 42907U 17046A   26187.76260479  .00000151  00000+0  00000+0 0  9990
2 42907   0.0342 104.8740 0000319  34.3946 104.9962  1.00275808 32590
