OBJECT_NAME,OBJECT_ID,EPOCH,MEAN_MOTION,ECCENTRICITY,INCLINATION,RA_OF_ASC_NODE,ARG_OF_PERICENTER,MEAN_ANOMALY,EPHEMERIS_TYPE,CLASSIFICATION_TYPE,NORAD_CAT_ID,ELEMENT_SET_NO,REV_AT_EPOCH,BSTAR,MEAN_MOTION_DOT,MEAN_MOTION_DDOT
SHIJIAN-17 (SJ-17),2016-065A,2026-07-06T18:11:56.611104,0.99862348,.0002015,5.7992,72.3693,42.0570,289.9689,0,U,41838,999,3539,0,.127E-5,0
GOES 16,2016-071A,2026-07-06T20:08:25.425024,1.00271590,.0000491,0.3862,85.6477,64.4442,332.1454,0,U,41866,999,3530,0,-.76E-6,0
TIANLIAN 1-04,2016-072A,2026-07-06T19:45:57.578976,1.00269513,.004371,0.9182,82.7972,90.0173,225.2996,0,U,41869,999,3549,0,.45E-6,0
WGS F8 (USA 272),2016-075A,2026-07-06T15:03:45.255168,1.00266110,.0000226,0.0481,63.1878,233.0796,4.1294,0,U,41879,999,3501,0,0,0
FENGYUN 4A,2016-077A,2026-07-06T21:13:37.065792,1.00273432,.0008096,2.3693,80.0723,157.7935,129.1777,0,U,41882,999,3512,0,-.343E-5,0
ECHOSTAR 19,2016-079A,2026-07-06T20:10:25.235040,1.00271135,.0001366,0.0193,39.1823,69.0150,22.1326,0,U,41893,999,3490,0,-.124E-5,0
JCSAT-110A (JCSAT-15),2016-082A,2026-07-06T19:57:29.776896,1.00270953,.0000592,0.0191,30.1152,95.6004,208.5334,0,U,41903,999,3495,0,-.336E-5,0
STAR ONE D1,2016-082B,2026-07-06T20:14:17.364192,1.00271929,.0002206,0.0165,305.3058,162.3741,36.7109,0,U,41904,999,3497,0,-.196E-5,0
TJS-2,2017-001A,2026-07-06T20:57:16.132896,1.00273259,.0000845,0.8810,85.0826,77.3455,143.3159,0,U,41911,999,3491,0,.7E-7,0
SBIRS GEO-4 (USA 273),2017-004A,2026-07-06T20:09:58.184928,1.00285122,.0002768,2.2784,43.7616,62.7849,142.0824,0,U,41937,999,3479,0,.14E-5,0
HISPASAT 36W-1,2017-006A,2026-07-06T15:19:53.368896,1.00269336,.0001256,0.0289,208.3811,247.2438,22.9660,0,U,41942,999,3444,0,-.23E-5,0
TELKOM 3S,2017-007A,2026-07-06T19:29:14.182080,1.00267911,.0002168,0.0181,33.5477,77.1680,224.3863,0,U,41944,999,3433,0,0,0
INTELSAT 32E (IS-32E),2017-007B,2026-07-06T05:02:00.328992,1.00273073,.00008377,0.0177,341.1822,13.2972,322.0488,0,U,41945,999,3441,0,-.254E-5,0
ECHOSTAR 23,2017-014A,2026-07-06T14:58:55.378848,1.00268217,.0001938,0.0181,28.7560,70.7835,299.8979,0,U,42070,999,3411,0,-.42E-6,0
WGS F9 (USA 275),2017-016A,2026-07-06T15:26:52.700064,1.00269105,.0000348,0.0176,12.7437,170.5471,321.0549,0,U,42075,999,3409,0,0,0
SES-10,2017-017A,2026-07-06T20:19:09.397056,1.00269983,.0002722,0.0146,35.1240,76.1314,51.4676,0,U,42432,999,3395,0,-.258E-5,0
CHINASAT 16 (SJ-13),2017-018A,2026-07-06T19:27:06.887232,1.00273235,.0004893,0.0913,89.1052,131.8089,106.1895,0,U,42662,999,3394,0,-.337E-5,0
KOREASAT 7,2017-023A,2026-07-06T19:28:36.743232,1.00271832,.0000635,0.0179,5.3992,121.4593,205.9531,0,U,42691,999,3356,0,-.347E-5,0
SGDC,2017-023B,2026-07-06T10:01:53.289696,1.00271739,.00024895,0.0112,27.8689,83.5842,248.5748,0,U,42692,999,3359,0,-.235E-5,0
GSAT-9,2017-024A,2026-07-06T19:23:22.246368,1.00270968,.000221,0.0670,92.1887,24.0146,196.7431,0,U,42695,999,3349,0,-.271E-5,0
INMARSAT 5-F4,2017-025A,2026-07-05T23:48:38.780064,1.00272578,.0000442,0.0225,38.2338,151.9506,147.4722,0,U,42698,999,3346,0,0,0
SES-15,2017-026A,2026-07-06T16:36:07.829856,1.00267383,.0000516,0.0241,328.0253,131.1108,305.4075,0,U,42709,999,762,0,.75E-6,0
QZS-2 (MICHIBIKI-2),2017-028A,2026-07-06T10:52:56.512704,1.00278986,.07583059,39.3984,242.8697,269.4935,77.5786,0,U,42738,999,781,0,-.103E-5,0
VIASAT-2,2017-029A,2026-07-06T20:18:16.979904,1.00271696,.0000132,0.0236,289.2379,232.7062,357.5784,0,U,42740,999,3340,0,-.25E-5,0
EUTELSAT 172B,2017-029B,2026-07-06T18:01:57.567072,1.00272110,.0000059,0.0309,128.9224,320.1341,278.1645,0,U,42741,999,3393,0,.9E-7,0
GSAT-19,2017-031A,2026-07-06T20:51:54.146880,1.00271684,.0006563,0.0163,82.7991,1.3430,201.5597,0,U,42747,999,3334,0,.14E-5,0
ECHOSTAR 21,2017-032A,2026-07-06T20:41:08.979072,1.00271331,.0002256,1.7697,356.9296,99.9665,148.4848,0,U,42749,999,3329,0,.8E-6,0
BULGARIASAT-1,2017-038A,2026-07-06T20:38:46.705920,1.00272254,.0003113,0.0243,286.9796,184.1507,125.2866,0,U,42801,999,3304,0,.26E-6,0
HELLAS-SAT 3,2017-040A,2026-07-06T20:45:53.221248,1.00273705,.000369,0.0589,55.1265,10.8786,209.3183,0,U,42814,999,3300,0,.167E-5,0
GSAT-17,2017-040B,2026-07-06T15:56:53.454912,1.00270403,.0001689,0.0501,89.2105,178.2239,349.9132,0,U,42815,999,3298,0,-.243E-5,0
INTELSAT 35E (IS-35E),2017-041A,2026-07-06T18:45:45.868032,1.00271849,.0001742,0.0158,7.5506,96.5837,67.5808,0,U,42818,999,3301,0,-.223E-5,0
COSMOS 2520,2017-046A,2026-07-06T18:18:09.053856,1.00275808,.0000319,0.0342,104.8740,34.3946,104.9962,0,U,42907,999,3259,0,.151E-5,0
